SWISSCUBE               
1 35932U 09051B   24189.66717804  .00001462  00000+0  32053-3 0  9998
2 35932  98.4690  73.3873 0005892 253.5162 106.5390 14.59172725785589
BEESAT-1                
1 35933U 09051C   24189.67582824  .00001271  00000+0  28169-3 0  9993
2 35933  98.4618  74.2786 0004211 269.3641  90.7075 14.58892918785692
ITUPSAT1                
1 35935U 09051E   24190.18560811  .00001124  00000+0  25597-3 0  9994
2 35935  98.4715  74.5714 0006498 275.1331  84.9125 14.57843650785358
DEIMOS-1                
1 35681U 09041A   24190.18076580  .00000792  00000+0  12938-3 0  9991
2 35681  97.6806  10.9779 0001175  27.2136 332.9134 14.73378531802400
UK-DMC 2                
1 35683U 09041C   24189.91675932  .00001270  00000+0  20323-3 0  9997
2 35683  97.7839 336.7114 0001491  85.1196 275.0183 14.73394258802068
ASIASAT 5               
1 35696U 09042A   24189.57670811 -.00000311  00000+0  00000+0 0  9997
2 35696   0.0340 268.7393 0001715 178.0704 147.3183  1.00269475 54591
JCSAT-12 (JCSAT-RA)     
1 35755U 09044A   24189.50457310 -.00000332  00000+0  00000+0 0  9998
2 35755   0.0539  89.6142 0001822  18.7572 131.2658  1.00272266 54491
OPTUS D3                
1 35756U 09044B   24190.15337431 -.00000150  00000+0  00000+0 0  9991
2 35756   0.0663  63.8739 0002965  27.5383  46.3765  1.00271587 54527
NIMIQ 5                 
1 35873U 09050A   24189.53540303 -.00000260  00000+0  00000+0 0  9994
2 35873   0.0146  66.7699 0002597  37.4869 301.7618  1.00272009 54233
AMAZONAS 2              
1 35942U 09054A   24183.73674296 -.00000279  00000+0  00000+0 0  9990
2 35942   0.0536 115.9946 0005246   9.3057 359.1854  1.00269322 54015
COMSATBW-1              
1 35943U 09054B   24189.56246706  .00000020  00000+0  00000+0 0  9992
2 35943   0.0611  61.8347 0002516  57.3367  72.3261  1.00273323 54188
NSS-12                  
1 36032U 09058A   24189.56081365  .00000068  00000+0  00000+0 0  9996
2 36032   0.0858 278.1729 0003316 188.6909  78.0224  1.00271662 53801
THOR 6                  
1 36033U 09058B   24189.69286362 -.00000013  00000+0  00000+0 0  9996
2 36033   0.0142  80.3078 0001845  54.9574  39.4307  1.00272118 53851
INTELSAT 14 (IS-14)     
1 36097U 09064A   24189.46934738 -.00000277  00000+0  00000+0 0  9997
2 36097   0.0073  48.7903 0002197  60.3603 300.7304  1.00271180 53482
EUTELSAT 36B            
1 36101U 09065A   24189.48535955  .00000152  00000+0  00000+0 0  9995
2 36101   0.0646   5.1795 0005350 100.0813  31.2821  1.00269897 53605
INTELSAT 15 (IS-15)     
1 36106U 09067A   24189.56685058 -.00000189  00000+0  00000+0 0  9992
2 36106   0.0174  72.0299 0001962  41.3084 101.8844  1.00271284 34117
WGS F3 (USA 211)        
1 36108U 09068A   24190.15396532 -.00000271  00000+0  00000+0 0  9990
2 36108   0.0180  32.6593 0000758 179.8890  86.6630  1.00267398 53394
GPS BIIRM-8 (PRN 05)    
1 35752U 09043A   24189.41753766 -.00000069  00000+0  00000+0 0  9995
2 35752  55.6899  55.4783 0057139  72.7867 126.0817  2.00568051109125
DUBAISAT-1              
1 35682U 09041B   24189.94715090  .00001778  00000+0  29290-3 0  9994
2 35682  97.9095 325.6126 0011124 180.4588 179.6611 14.71680245800695
OCEANSAT-2              
1 35931U 09051A   24190.02050018 -.00000171  00000+0 -91458-4 0  9999
2 35931  98.2638 236.7834 0016920  78.9922 281.3147 13.99477731780133
WORLDVIEW-2 (WV-2)      
1 35946U 09055A   24190.15982599  .00000250  00000+0  99239-4 0  9992
2 35946  98.4606 262.6102 0004541 157.5119 202.6267 14.36824151773900
SMOS                    
1 36036U 09059A   24190.05006105  .00000481  00000+0  16741-3 0  9998
2 36036  98.4428  16.6901 0001414  92.9546 267.1804 14.39767214771550
YAOGAN-7                
1 36110U 09069A   24190.15428372  .00000700  00000+0  10812-3 0  9994
2 36110  98.1030  66.0512 0025832 158.1672 202.0644 14.76292843784984
DMSP 5D-3 F18 (USA 210) 
1 35951U 09057A   24190.20692398  .00000352  00000+0  20749-3 0  9993
2 35951  98.8145 165.2750 0012335 105.0511 255.2028 14.14158087759333
