OBJECT_NAME,OBJECT_ID,EPOCH,MEAN_MOTION,ECCENTRICITY,INCLINATION,RA_OF_ASC_NODE,ARG_OF_PERICENTER,MEAN_ANOMALY,EPHEMERIS_TYPE,CLASSIFICATION_TYPE,NORAD_CAT_ID,ELEMENT_SET_NO,REV_AT_EPOCH,BSTAR,MEAN_MOTION_DOT,MEAN_MOTION_DDOT
DEIMOS-1,2009-041A,2024-07-08T04:20:18.165120,14.73378531,.0001175,97.6806,10.9779,27.2136,332.9134,0,U,35681,999,80240,.12938E-3,.792E-5,0
DUBAISAT-1,2009-041B,2024-07-07T22:43:53.837760,14.71680245,.0011124,97.9095,325.6126,180.4588,179.6611,0,U,35682,999,80069,.2929E-3,.1778E-4,0
UK-DMC 2,2009-041C,2024-07-07T22:00:08.005248,14.73394258,.0001491,97.7839,336.7114,85.1196,275.0183,0,U,35683,999,80206,.20323E-3,.127E-4,0
ASIASAT 5,2009-042A,2024-07-07T13:50:27.580704,1.00269475,.0001715,0.0340,268.7393,178.0704,147.3183,0,U,35696,999,5459,0,-.311E-5,0
NAVSTAR 64 (USA 206),2009-043A,2024-07-07T10:01:15.253824,2.00568051,.0057139,55.6899,55.4783,72.7867,126.0817,0,U,35752,999,10912,0,-.69E-6,0
JCSAT-12 (JCSAT-RA),2009-044A,2024-07-07T12:06:35.115840,1.00272266,.0001822,0.0539,89.6142,18.7572,131.2658,0,U,35755,999,5449,0,-.332E-5,0
OPTUS D3,2009-044B,2024-07-08T03:40:51.540384,1.00271587,.0002965,0.0663,63.8739,27.5383,46.3765,0,U,35756,999,5452,0,-.15E-5,0
NIMIQ 5,2009-050A,2024-07-07T12:50:58.821792,1.00272009,.0002597,0.0146,66.7699,37.4869,301.7618,0,U,35873,999,5423,0,-.26E-5,0
OCEANSAT-2,2009-051A,2024-07-08T00:29:31.215552,13.99477731,.001692,98.2638,236.7834,78.9922,281.3147,0,U,35931,999,78013,-.91458E-4,-.171E-5,0
SWISSCUBE,2009-051B,2024-07-07T16:00:44.182656,14.59172725,.0005892,98.4690,73.3873,253.5162,106.5390,0,U,35932,999,78558,.32053E-3,.1462E-4,0
BEESAT-1,2009-051C,2024-07-07T16:13:11.559936,14.58892918,.0004211,98.4618,74.2786,269.3641,90.7075,0,U,35933,999,78569,.28169E-3,.1271E-4,0
ITUPSAT1,2009-051E,2024-07-08T04:27:16.540704,14.57843650,.0006498,98.4715,74.5714,275.1331,84.9125,0,U,35935,999,78535,.25597E-3,.1124E-4,0
AMAZONAS 2,2009-054A,2024-07-01T17:40:54.591744,1.00269322,.0005246,0.0536,115.9946,9.3057,359.1854,0,U,35942,999,5401,0,-.279E-5,0
COMSATBW-1,2009-054B,2024-07-07T13:29:57.153984,1.00273323,.0002516,0.0611,61.8347,57.3367,72.3261,0,U,35943,999,5418,0,.2E-6,0
WORLDVIEW-2 (WV-2),2009-055A,2024-07-08T03:50:08.965536,14.36824151,.0004541,98.4606,262.6102,157.5119,202.6267,0,U,35946,999,77390,.99239E-4,.25E-5,0
DMSP 5D-3 F18 (USA 210),2009-057A,2024-07-08T04:57:58.231872,14.14158087,.0012335,98.8145,165.2750,105.0511,255.2028,0,U,35951,999,75933,.20749E-3,.352E-5,0
NSS-12,2009-058A,2024-07-07T13:27:34.299360,1.00271662,.0003316,0.0858,278.1729,188.6909,78.0224,0,U,36032,999,5380,0,.68E-6,0
THOR 6,2009-058B,2024-07-07T16:37:43.416768,1.00272118,.0001845,0.0142,80.3078,54.9574,39.4307,0,U,36033,999,5385,0,-.13E-6,0
SMOS,2009-059A,2024-07-08T01:12:05.274720,14.39767214,.0001414,98.4428,16.6901,92.9546,267.1804,0,U,36036,999,77155,.16741E-3,.481E-5,0
INTELSAT 14 (IS-14),2009-064A,2024-07-07T11:15:51.613632,1.00271180,.0002197,0.0073,48.7903,60.3603,300.7304,0,U,36097,999,5348,0,-.277E-5,0
EUTELSAT 36B,2009-065A,2024-07-07T11:38:55.065120,1.00269897,.000535,0.0646,5.1795,100.0813,31.2821,0,U,36101,999,5360,0,.152E-5,0
INTELSAT 15 (IS-15),2009-067A,2024-07-07T13:36:15.890112,1.00271284,.0001962,0.0174,72.0299,41.3084,101.8844,0,U,36106,999,3411,0,-.189E-5,0
WGS F3 (USA 211),2009-068A,2024-07-08T03:41:42.603648,1.00267398,.0000758,0.0180,32.6593,179.8890,86.6630,0,U,36108,999,5339,0,-.271E-5,0
YAOGAN-7,2009-069A,2024-07-08T03:42:10.113408,14.76292843,.0025832,98.1030,66.0512,158.1672,202.0644,0,U,36110,999,78498,.10812E-3,.7E-5,0
